CCSDS_OMM_VERS = 2.0
CREATION_DATE  = 
ORIGINATOR     = 

OBJECT_NAME    = ATLAS CENTAUR R/B
OBJECT_ID      = 1972-065B
CENTER_NAME    = EARTH
REF_FRAME      = TEME
TIME_SYSTEM    = UTC
MEAN_ELEMENT_THEORY = SGP/SGP4

EPOCH          = 2026-02-02T15:00:27.347328
MEAN_MOTION    = 14.77579192
ECCENTRICITY   = .00331579
INCLINATION    = 35.0005
RA_OF_ASC_NODE = 151.2251
ARG_OF_PERICENTER = 74.6424
MEAN_ANOMALY   = 285.7937

EPHEMERIS_TYPE = 0
CLASSIFICATION_TYPE = U
NORAD_CAT_ID   = 6155
ELEMENT_SET_NO = 999
REV_AT_EPOCH   = 83607
BSTAR          = .21000609E-3
MEAN_MOTION_DOT = .1514E-4
MEAN_MOTION_DDOT = 0

CCSDS_OMM_VERS = 2.0
CREATION_DATE  = 
ORIGINATOR     = 

OBJECT_NAME    = SL-8 R/B
OBJECT_ID      = 1975-112B
CENTER_NAME    = EARTH
REF_FRAME      = TEME
TIME_SYSTEM    = UTC
MEAN_ELEMENT_THEORY = SGP/SGP4

EPOCH          = 2026-02-02T14:01:03.339552
MEAN_MOTION    = 14.38185613
ECCENTRICITY   = .00156959
INCLINATION    = 74.0597
RA_OF_ASC_NODE = 83.4956
ARG_OF_PERICENTER = 188.3157
MEAN_ANOMALY   = 171.7740

EPHEMERIS_TYPE = 0
CLASSIFICATION_TYPE = U
NORAD_CAT_ID   = 8459
ELEMENT_SET_NO = 999
REV_AT_EPOCH   = 62682
BSTAR          = .84777988E-4
MEAN_MOTION_DOT = .232E-5
MEAN_MOTION_DDOT = 0

CCSDS_OMM_VERS = 2.0
CREATION_DATE  = 
ORIGINATOR     = 

OBJECT_NAME    = SL-3 R/B
OBJECT_ID      = 1977-057B
CENTER_NAME    = EARTH
REF_FRAME      = TEME
TIME_SYSTEM    = UTC
MEAN_ELEMENT_THEORY = SGP/SGP4

EPOCH          = 2026-02-02T14:44:52.887264
MEAN_MOTION    = 15.44453409
ECCENTRICITY   = .00083539
INCLINATION    = 97.5718
RA_OF_ASC_NODE = 204.0309
ARG_OF_PERICENTER = 55.0376
MEAN_ANOMALY   = 305.1655

EPHEMERIS_TYPE = 0
CLASSIFICATION_TYPE = U
NORAD_CAT_ID   = 10114
ELEMENT_SET_NO = 999
REV_AT_EPOCH   = 66291
BSTAR          = .29260393E-3
MEAN_MOTION_DOT = .13472E-3
MEAN_MOTION_DDOT = 0

CCSDS_OMM_VERS = 2.0
CREATION_DATE  = 
ORIGINATOR     = 

OBJECT_NAME    = SEASAT 1
OBJECT_ID      = 1978-064A
CENTER_NAME    = EARTH
REF_FRAME      = TEME
TIME_SYSTEM    = UTC
MEAN_ELEMENT_THEORY = SGP/SGP4

EPOCH          = 2026-02-02T00:14:59.282304
MEAN_MOTION    = 14.46128387
ECCENTRICITY   = .00014283
INCLINATION    = 108.0164
RA_OF_ASC_NODE = 50.6209
ARG_OF_PERICENTER = 290.5033
MEAN_ANOMALY   = 69.5959

EPHEMERIS_TYPE = 0
CLASSIFICATION_TYPE = U
NORAD_CAT_ID   = 10967
ELEMENT_SET_NO = 999
REV_AT_EPOCH   = 50135
BSTAR          = .12226468E-3
MEAN_MOTION_DOT = .3E-5
MEAN_MOTION_DDOT = 0

CCSDS_OMM_VERS = 2.0
CREATION_DATE  = 
ORIGINATOR     = 

OBJECT_NAME    = SL-14 R/B
OBJECT_ID      = 1979-011B
CENTER_NAME    = EARTH
REF_FRAME      = TEME
TIME_SYSTEM    = UTC
MEAN_ELEMENT_THEORY = SGP/SGP4

EPOCH          = 2026-02-02T12:03:22.102560
MEAN_MOTION    = 14.91861206
ECCENTRICITY   = .00163038
INCLINATION    = 82.5261
RA_OF_ASC_NODE = 129.9554
ARG_OF_PERICENTER = 169.9426
MEAN_ANOMALY   = 190.2124

EPHEMERIS_TYPE = 0
CLASSIFICATION_TYPE = U
NORAD_CAT_ID   = 11267
ELEMENT_SET_NO = 999
REV_AT_EPOCH   = 52353
BSTAR          = .73331301E-4
MEAN_MOTION_DOT = .768E-5
MEAN_MOTION_DDOT = 0

CCSDS_OMM_VERS = 2.0
CREATION_DATE  = 
ORIGINATOR     = 

OBJECT_NAME    = SL-8 R/B
OBJECT_ID      = 1979-089B
CENTER_NAME    = EARTH
REF_FRAME      = TEME
TIME_SYSTEM    = UTC
MEAN_ELEMENT_THEORY = SGP/SGP4

EPOCH          = 2026-02-02T13:55:15.538080
MEAN_MOTION    = 14.42327077
ECCENTRICITY   = .0016303
INCLINATION    = 74.0695
RA_OF_ASC_NODE = 156.0313
ARG_OF_PERICENTER = 333.4259
MEAN_ANOMALY   = 26.6060

EPHEMERIS_TYPE = 0
CLASSIFICATION_TYPE = U
NORAD_CAT_ID   = 11574
ELEMENT_SET_NO = 999
REV_AT_EPOCH   = 43104
BSTAR          = .10178431E-3
MEAN_MOTION_DOT = .31E-5
MEAN_MOTION_DDOT = 0

CCSDS_OMM_VERS = 2.0
CREATION_DATE  = 
ORIGINATOR     = 

OBJECT_NAME    = SL-14 R/B
OBJECT_ID      = 1980-005B
CENTER_NAME    = EARTH
REF_FRAME      = TEME
TIME_SYSTEM    = UTC
MEAN_ELEMENT_THEORY = SGP/SGP4

EPOCH          = 2026-02-02T08:35:33.276192
MEAN_MOTION    = 14.90879168
ECCENTRICITY   = .00141522
INCLINATION    = 82.5170
RA_OF_ASC_NODE = 340.7399
ARG_OF_PERICENTER = 283.1897
MEAN_ANOMALY   = 76.7743

EPHEMERIS_TYPE = 0
CLASSIFICATION_TYPE = U
NORAD_CAT_ID   = 11672
ELEMENT_SET_NO = 999
REV_AT_EPOCH   = 47122
BSTAR          = .78648179E-4
MEAN_MOTION_DOT = .801E-5
MEAN_MOTION_DDOT = 0

CCSDS_OMM_VERS = 2.0
CREATION_DATE  = 
ORIGINATOR     = 

OBJECT_NAME    = SL-8 R/B
OBJECT_ID      = 1981-003B
CENTER_NAME    = EARTH
REF_FRAME      = TEME
TIME_SYSTEM    = UTC
MEAN_ELEMENT_THEORY = SGP/SGP4

EPOCH          = 2026-02-02T13:18:19.416096
MEAN_MOTION    = 15.09629537
ECCENTRICITY   = .02646819
INCLINATION    = 82.9401
RA_OF_ASC_NODE = 322.4794
ARG_OF_PERICENTER = 301.4870
MEAN_ANOMALY   = 56.0738

EPHEMERIS_TYPE = 0
CLASSIFICATION_TYPE = U
NORAD_CAT_ID   = 12139
ELEMENT_SET_NO = 999
REV_AT_EPOCH   = 30937
BSTAR          = .6316691E-3
MEAN_MOTION_DOT = .23782E-3
MEAN_MOTION_DDOT = 0

CCSDS_OMM_VERS = 2.0
CREATION_DATE  = 
ORIGINATOR     = 

OBJECT_NAME    = SL-3 R/B
OBJECT_ID      = 1981-046B
CENTER_NAME    = EARTH
REF_FRAME      = TEME
TIME_SYSTEM    = UTC
MEAN_ELEMENT_THEORY = SGP/SGP4

EPOCH          = 2026-02-02T12:52:57.192384
MEAN_MOTION    = 15.40988832
ECCENTRICITY   = .00203658
INCLINATION    = 81.2351
RA_OF_ASC_NODE = 331.9126
ARG_OF_PERICENTER = 137.1718
MEAN_ANOMALY   = 223.1116

EPHEMERIS_TYPE = 0
CLASSIFICATION_TYPE = U
NORAD_CAT_ID   = 12465
ELEMENT_SET_NO = 999
REV_AT_EPOCH   = 43301
BSTAR          = .33224988E-3
MEAN_MOTION_DOT = .13831E-3
MEAN_MOTION_DDOT = 0

CCSDS_OMM_VERS = 2.0
CREATION_DATE  = 
ORIGINATOR     = 

OBJECT_NAME    = SL-3 R/B
OBJECT_ID      = 1981-103B
CENTER_NAME    = EARTH
REF_FRAME      = TEME
TIME_SYSTEM    = UTC
MEAN_ELEMENT_THEORY = SGP/SGP4

EPOCH          = 2026-02-02T13:55:12.038880
MEAN_MOTION    = 15.20942455
ECCENTRICITY   = .00140971
INCLINATION    = 81.1561
RA_OF_ASC_NODE = 254.6134
ARG_OF_PERICENTER = 46.2431
MEAN_ANOMALY   = 313.9964

EPHEMERIS_TYPE = 0
CLASSIFICATION_TYPE = U
NORAD_CAT_ID   = 12904
ELEMENT_SET_NO = 999
REV_AT_EPOCH   = 96789
BSTAR          = .20779458E-3
MEAN_MOTION_DOT = .4636E-4
MEAN_MOTION_DDOT = 0

CCSDS_OMM_VERS = 2.0
CREATION_DATE  = 
ORIGINATOR     = 

OBJECT_NAME    = SL-3 R/B
OBJECT_ID      = 1982-013B
CENTER_NAME    = EARTH
REF_FRAME      = TEME
TIME_SYSTEM    = UTC
MEAN_ELEMENT_THEORY = SGP/SGP4

EPOCH          = 2026-02-02T14:28:39.358848
MEAN_MOTION    = 15.21618051
ECCENTRICITY   = .00218556
INCLINATION    = 81.1731
RA_OF_ASC_NODE = 201.8769
ARG_OF_PERICENTER = 299.2925
MEAN_ANOMALY   = 60.6122

EPHEMERIS_TYPE = 0
CLASSIFICATION_TYPE = U
NORAD_CAT_ID   = 13068
ELEMENT_SET_NO = 999
REV_AT_EPOCH   = 39901
BSTAR          = .23880666E-3
MEAN_MOTION_DOT = .545E-4
MEAN_MOTION_DDOT = 0

CCSDS_OMM_VERS = 2.0
CREATION_DATE  = 
ORIGINATOR     = 

OBJECT_NAME    = SL-3 R/B
OBJECT_ID      = 1982-039B
CENTER_NAME    = EARTH
REF_FRAME      = TEME
TIME_SYSTEM    = UTC
MEAN_ELEMENT_THEORY = SGP/SGP4

EPOCH          = 2026-02-02T12:51:19.287360
MEAN_MOTION    = 15.09882224
ECCENTRICITY   = .00300796
INCLINATION    = 81.1625
RA_OF_ASC_NODE = 256.4790
ARG_OF_PERICENTER = 79.4764
MEAN_ANOMALY   = 280.9848

EPHEMERIS_TYPE = 0
CLASSIFICATION_TYPE = U
NORAD_CAT_ID   = 13154
ELEMENT_SET_NO = 999
REV_AT_EPOCH   = 37633
BSTAR          = .14306348E-3
MEAN_MOTION_DOT = .2365E-4
MEAN_MOTION_DDOT = 0

