ATLAS CENTAUR R/B       
1 06155U 72065B   26033.62531652  .00001514  00000+0  21001-3 0  9998
2 06155  35.0005 151.2251 0033157  74.6424 285.7937 14.77579192836072
SL-8 R/B                
1 08459U 75112B   26033.58406643  .00000232  00000+0  84778-4 0  9996
2 08459  74.0597  83.4956 0015695 188.3157 171.7740 14.38185613626825
SL-3 R/B                
1 10114U 77057B   26033.61450101  .00013472  00000+0  29260-3 0  9993
2 10114  97.5718 204.0309 0008353  55.0376 305.1655 15.44453409662917
SEASAT 1                
1 10967U 78064A   26033.01040836  .00000300  00000+0  12226-3 0  9992
2 10967 108.0164  50.6209 0001428 290.5033  69.5959 14.46128387501355
SL-14 R/B               
1 11267U 79011B   26033.50233915  .00000768  00000+0  73331-4 0  9998
2 11267  82.5261 129.9554 0016303 169.9426 190.2124 14.91861206523533
SL-8 R/B                
1 11574U 79089B   26033.58004095  .00000310  00000+0  10178-3 0  9999
2 11574  74.0695 156.0313 0016303 333.4259  26.6060 14.42327077431041
SL-14 R/B               
1 11672U 80005B   26033.35802403  .00000801  00000+0  78648-4 0  9994
2 11672  82.5170 340.7399 0014152 283.1897  76.7743 14.90879168471221
SL-8 R/B                
1 12139U 81003B   26033.55439139  .00023782  00000+0  63167-3 0  9998
2 12139  82.9401 322.4794 0264681 301.4870  56.0738 15.09629537309371
SL-3 R/B                
1 12465U 81046B   26033.53677306  .00013831  00000+0  33225-3 0  9991
2 12465  81.2351 331.9126 0020365 137.1718 223.1116 15.40988832433014
SL-3 R/B                
1 12904U 81103B   26033.58000045  .00004636  00000+0  20779-3 0  9991
2 12904  81.1561 254.6134 0014097  46.2431 313.9964 15.20942455967897
SL-3 R/B                
1 13068U 82013B   26033.60323332  .00005450  00000+0  23881-3 0  9996
2 13068  81.1731 201.8769 0021855 299.2925  60.6122 15.21618051399012
SL-3 R/B                
1 13154U 82039B   26033.53563990  .00002365  00000+0  14306-3 0  9992
2 13154  81.1625 256.4790 0030079  79.4764 280.9848 15.09882224376330
